NORAD_CAT_ID,OBJECT_NAME,OBJECT_TYPE,EPOCH,MEAN_MOTION,ECCENTRICITY,INCLINATION,RA_OF_ASC_NODE,ARG_OF_PERICENTER,MEAN_ANOMALY,BSTAR,MEAN_MOTION_DOT,MEAN_MOTION_DDOT,TLE_LINE0,TLE_LINE1,TLE_LINE2,SEMIMAJOR_AXIS,PERIOD,APOGEE,PERIGEE,DECAYED
52611.0,STARLINK-3980,PAYLOAD,2023-03-28 16:21:59,15.08840123,0.0001117,53.2168,78.9959,107.6144,252.497,8.8843e-05,1.126e-05,0.0,0 STARLINK-3980,1 52611U 22052P   23087.68194143  .00001126  00000-0  88843-4 0  9997,2 52611  53.2168  78.9959 0001117 107.6144 252.4970 15.08840123 48195,6917.88,95.438,540.518,538.972,0.0
52611.0,STARLINK-3980,PAYLOAD,2023-03-29 06:40:27,15.0884966,0.0001189,53.2173,76.3201,109.0492,251.0629,0.00019158,2.763e-05,0.0,0 STARLINK-3980,1 52611U 22052P   23088.27809739  .00002763  00000-0  19158-3 0  9997,2 52611  53.2173  76.3201 0001189 109.0492 251.0629 15.08849660 48285,6917.851,95.437,540.538,538.893,0.0
52611.0,STARLINK-3980,PAYLOAD,2023-03-29 16:12:46,15.08849744,0.000108,53.2169,74.5346,87.0523,273.0593,0.0001888,2.719e-05,0.0,0 STARLINK-3980,1 52611U 22052P   23088.67553673  .00002719  00000-0  18880-3 0  9996,2 52611  53.2169  74.5346 0001080  87.0523 273.0593 15.08849744 48715,6917.851,95.437,540.463,538.968,0.0
52611.0,STARLINK-3980,PAYLOAD,2023-03-30 04:55:51,15.08842683,0.0001606,53.2172,72.157,86.9526,273.165,0.00014864,2.079e-05,0.0,0 STARLINK-3980,1 52611U 22052P   23089.20546263  .00002079  00000-0  14864-3 0  9990,2 52611  53.2172  72.1570 0001606  86.9526 273.1650 15.08842683 48795,6917.872,95.437,540.848,538.626,0.0
52611.0,STARLINK-3980,PAYLOAD,2023-03-30 06:31:15,15.08840569,9.65e-05,53.2162,71.8593,89.2246,270.8857,7.5049e-05,9.07e-06,0.0,0 STARLINK-3980,1 52611U 22052P   23089.27170266  .00000907  00000-0  75049-4 0  9994,2 52611  53.2162  71.8593 0000965  89.2246 270.8857 15.08840569 48432,6917.879,95.438,540.411,539.076,0.0
52611.0,STARLINK-3980,PAYLOAD,2023-03-31 07:57:25,15.08855646,0.000123,53.217,67.0989,85.9448,274.1685,0.00042103,6.422e-05,0.0,0 STARLINK-3980,1 52611U 22052P   23090.33154006  .00006422  00000-0  42103-3 0  9999,2 52611  53.2170  67.0989 0001230  85.9448 274.1685 15.08855646 48966,6917.833,95.437,540.548,538.847,0.0
52611.0,STARLINK-3980,PAYLOAD,2023-04-01 04:37:26,15.08843352,0.0001021,53.2163,63.2341,99.6392,260.4716,0.00027369,4.071e-05,0.0,0 STARLINK-3980,1 52611U 22052P   23091.19266556  .00004071  00000-0  27369-3 0  9993,2 52611  53.2163  63.2341 0001021  99.6392 260.4716 15.08843352 49095,6917.87,95.437,540.441,539.029,0.0
52611.0,STARLINK-3980,PAYLOAD,2023-04-01 07:48:12,15.0884737,0.0001216,53.2167,62.6387,100.4283,259.6847,0.00026667,3.96e-05,0.0,0 STARLINK-3980,1 52611U 22052P   23091.32514334  .00003960  00000-0  26667-3 0  9994,2 52611  53.2167  62.6387 0001216 100.4283 259.6847 15.08847370 48748,6917.858,95.437,540.564,538.882,0.0
52611.0,STARLINK-3980,PAYLOAD,2023-04-02 04:28:13,15.08843048,0.0001285,53.2165,58.7738,91.5031,268.6108,0.00010374,1.364e-05,0.0,0 STARLINK-3980,1 52611U 22052P   23092.18626706  .00001364  00000-0  10374-3 0  9990,2 52611  53.2165  58.7738 0001285  91.5031 268.6108 15.08843048 49243,6917.871,95.437,540.625,538.847,0.0
52611.0,STARLINK-3980,PAYLOAD,2023-04-02 07:38:59,15.08845849,0.0001312,53.2166,58.1775,92.1161,267.9982,0.00033631,5.069e-05,0.0,0 STARLINK-3980,1 52611U 22052P   23092.31874741  .00005069  00000-0  33631-3 0  9996,2 52611  53.2166  58.1775 0001312  92.1161 267.9982 15.08845849 48894,6917.863,95.437,540.635,538.82,0.0
52611.0,STARLINK-3980,PAYLOAD,2023-04-03 07:29:46,15.08855902,0.0001066,53.217,53.7167,94.6791,265.4323,0.0005359,8.255e-05,0.0,0 STARLINK-3980,1 52611U 22052P   23093.31234333  .00008255  00000-0  53590-3 0  9990,2 52611  53.2170  53.7167 0001066  94.6791 265.4323 15.08855902 49419,6917.832,95.437,540.434,538.959,0.0
52611.0,STARLINK-3980,PAYLOAD,2023-04-03 21:48:15,15.08841299,0.000126,53.2169,51.0398,93.8783,266.2353,5.3876e-05,5.7e-06,0.0,0 STARLINK-3980,1 52611U 22052P   23093.90850808  .00000570  00000-0  53876-4 0  9996,2 52611  53.2169  51.0398 0001260  93.8783 266.2353 15.08841299 49137,6917.876,95.437,540.613,538.87,0.0
52611.0,STARLINK-3980,PAYLOAD,2023-04-04 02:34:24,15.08843211,0.0001218,53.2171,50.1478,93.9037,266.2094,8.7846e-05,1.111e-05,0.0,0 STARLINK-3980,1 52611U 22052P   23094.10722773  .00001111  00000-0  87846-4 0  9994,2 52611  53.2171  50.1478 0001218  93.9037 266.2094 15.08843211 49537,6917.871,95.437,540.578,538.893,0.0
52611.0,STARLINK-3980,PAYLOAD,2023-04-04 05:45:10,15.08848844,0.0001063,53.217,49.555,86.5936,273.5178,0.00019711,2.851e-05,0.0,0 STARLINK-3980,1 52611U 22052P   23094.23970526  .00002851  00000-0  19711-3 0  9996,2 52611  53.2170  49.5550 0001063  86.5936 273.5178 15.08848844 49185,6917.853,95.437,540.454,538.983,0.0
52611.0,STARLINK-3980,PAYLOAD,2023-04-04 20:03:39,15.08839111,0.0001089,53.2175,46.8818,95.8394,264.2722,3.9106e-05,3.35e-06,0.0,0 STARLINK-3980,1 52611U 22052P   23094.83586922  .00000335  00000-0  39106-4 0  9991,2 52611  53.2175  46.8818 0001089  95.8394 264.2722 15.08839111 49275,6917.883,95.438,540.501,538.995,0.0
52611.0,STARLINK-3980,PAYLOAD,2023-04-05 02:25:11,15.08839383,0.0001063,53.2174,45.6915,95.9081,264.2032,-4.8686e-05,-1.063e-05,0.0,0 STARLINK-3980,1 52611U 22052P   23095.10083078 -.00001063  00000-0 -48686-4 0  9990,2 52611  53.2174  45.6915 0001063  95.9081 264.2032 15.08839383 49685,6917.882,95.438,540.483,539.012,0.0
52611.0,STARLINK-3980,PAYLOAD,2023-04-05 05:35:57,15.0884773,0.0001249,53.2181,45.094,82.4783,277.6351,6.2309e-05,7.04e-06,0.0,0 STARLINK-3980,1 52611U 22052P   23095.23330598  .00000704  00000-0  62309-4 0  9993,2 52611  53.2181  45.0940 0001249  82.4783 277.6351 15.08847730 49701,6917.857,95.437,540.586,538.858,0.0
52611.0,STARLINK-3980,PAYLOAD,2023-04-06 02:15:58,15.08839912,0.0001237,53.2179,41.2289,85.6519,274.4615,5.1862e-05,5.38e-06,0.0,0 STARLINK-3980,1 52611U 22052P   23096.09443175  .00000538  00000-0  51862-4 0  9991,2 52611  53.2179  41.2289 0001237  85.6519 274.4615 15.08839912 49836,6917.881,95.438,540.601,538.89,0.0
52611.0,STARLINK-3980,PAYLOAD,2023-04-06 08:37:31,15.08848225,0.0001288,53.218,40.0375,95.8531,264.2608,0.00018828,2.711e-05,0.0,0 STARLINK-3980,1 52611U 22052P   23096.35938822  .00002711  00000-0  18828-3 0  9997,2 52611  53.2180  40.0375 0001288  95.8531 264.2608 15.08848225 49504,6917.855,95.437,540.611,538.829,0.0
52611.0,STARLINK-3980,PAYLOAD,2023-04-06 19:45:13,15.08837624,0.0001608,53.2186,37.955,111.6346,248.4817,-2.1718e-05,-6.34e-06,0.0,0 STARLINK-3980,1 52611U 22052P   23096.82307436 -.00000634  00000-0 -21718-4 0  9997,2 52611  53.2186  37.9550 0001608 111.6346 248.4817 15.08837624 49571,6917.888,95.438,540.865,538.64,0.0
52611.0,STARLINK-3980,PAYLOAD,2023-04-07 02:06:46,15.0884003,0.0001577,53.217,36.7659,102.7829,257.3339,4.959e-05,5.01e-06,0.0,0 STARLINK-3980,1 52611U 22052P   23097.08803433  .00000501  00000-0  49590-4 0  9993,2 52611  53.2170  36.7659 0001577 102.7829 257.3339 15.08840030 49981,6917.88,95.438,540.836,538.654,0.0
52611.0,STARLINK-3980,PAYLOAD,2023-04-07 05:17:32,15.08843156,0.00013,53.2176,36.1722,99.5055,260.6084,0.00013613,1.879e-05,0.0,0 STARLINK-3980,1 52611U 22052P   23097.22051599  .00001879  00000-0  13613-3 0  9992,2 52611  53.2176  36.1722 0001300  99.5055 260.6084 15.08843156 49638,6917.871,95.437,540.635,538.836,0.0
52611.0,STARLINK-3980,PAYLOAD,2023-04-08 05:08:18,15.08853055,0.0001097,53.2166,31.7124,93.6919,266.4198,0.00031132,4.672e-05,0.0,0 STARLINK-3980,1 52611U 22052P   23098.21410863  .00004672  00000-0  31132-3 0  9995,2 52611  53.2166  31.7124 0001097  93.6919 266.4198 15.08853055 50159,6917.84,95.437,540.464,538.947,0.0
52611.0,STARLINK-3980,PAYLOAD,2023-04-08 19:26:47,15.08838679,0.000133,53.2176,29.0395,68.3556,291.7578,4.3264e-05,4.01e-06,0.0,0 STARLINK-3980,1 52611U 22052P   23098.81027661  .00000401  00000-0  43264-4 0  9997,2 52611  53.2176  29.0395 0001330  68.3556 291.7578 15.08838679 50244,6917.884,95.438,540.67,538.829,0.0
52611.0,STARLINK-3980,PAYLOAD,2023-04-09 04:59:06,15.08843897,0.0001366,53.2181,27.252,94.0152,266.0997,0.00011116,1.482e-05,0.0,0 STARLINK-3980,1 52611U 22052P   23099.20771386  .00001482  00000-0  11116-3 0  9991,2 52611  53.2181  27.2520 0001366  94.0152 266.0997 15.08843897 49939,6917.868,95.437,540.678,538.788,0.0
52611.0,STARLINK-3980,PAYLOAD,2023-04-09 22:28:21,15.08841249,0.0001421,53.2177,23.9811,98.7724,261.3429,4.0621e-05,3.59e-06,0.0,0 STARLINK-3980,1 52611U 22052P   23099.93635579  .00000359  00000-0  40621-4 0  9990,2 52611  53.2177  23.9811 0001421  98.7724 261.3429 15.08841249 50410,6917.877,95.437,540.725,538.759,0.0
52611.0,STARLINK-3980,PAYLOAD,2023-04-10 04:49:53,15.08845752,0.0001463,53.2177,22.791,101.3267,258.7889,0.0001924,2.776e-05,0.0,0 STARLINK-3980,1 52611U 22052P   23100.20131432  .00002776  00000-0  19240-3 0  9999,2 52611  53.2177  22.7910 0001463 101.3267 258.7889 15.08845752 50082,6917.863,95.437,540.74,538.716,0.0
52611.0,STARLINK-3980,PAYLOAD,2023-04-10 19:08:21,15.08842014,0.0001586,53.2182,20.116,103.6837,256.4331,0.00014971,2.096e-05,0.0,0 STARLINK-3980,1 52611U 22052P   23100.79747602  .00002096  00000-0  14971-3 0  9996,2 52611  53.2182  20.1160 0001586 103.6837 256.4331 15.08842014 50176,6917.874,95.437,540.836,538.642,0.0
52611.0,STARLINK-3980,PAYLOAD,2023-04-11 03:05:16,15.08857056,0.0001391,53.2183,18.6295,100.6687,259.4462,0.00039656,6.032e-05,0.0,0 STARLINK-3980,1 52611U 22052P   23101.12866883  .00006032  00000-0  39656-3 0  9998,2 52611  53.2183  18.6295 0001391 100.6687 259.4462 15.08857056 50598,6917.828,95.436,540.656,538.731,0.0
52611.0,STARLINK-3980,PAYLOAD,2023-04-11 18:59:09,15.08837985,0.0001538,53.2187,15.6588,101.318,258.7985,-4.5676e-05,-1.015e-05,0.0,0 STARLINK-3980,1 52611U 22052P   23101.79107732 -.00001015  00000-0 -45676-4 0  9990,2 52611  53.2187  15.6588 0001538 101.3180 258.7985 15.08837985 50325,6917.887,95.438,540.816,538.688,0.0
